NORAD_CAT_ID,OBJECT_NAME,OBJECT_TYPE,EPOCH,MEAN_MOTION,ECCENTRICITY,INCLINATION,RA_OF_ASC_NODE,ARG_OF_PERICENTER,MEAN_ANOMALY,BSTAR,MEAN_MOTION_DOT,MEAN_MOTION_DDOT,TLE_LINE0,TLE_LINE1,TLE_LINE2,SEMIMAJOR_AXIS,PERIOD,APOGEE,PERIGEE,DECAYED
50846.0,STARLINK-3308,PAYLOAD,2024-02-23 01:46:45,15.08844105,0.0001463,53.2167,286.4356,91.8725,268.2435,-4.4946e-05,-1.003e-05,0.0,0 STARLINK-3308,1 50846U 22001AV  24054.07413249 -.00001003  00000-0 -44946-4 0  9990,2 50846  53.2167 286.4356 0001463  91.8725 268.2435 15.08844105118982,6917.868,95.437,540.745,538.721,0.0
50846.0,STARLINK-3308,PAYLOAD,2024-02-23 08:08:17,15.0884442,0.0001456,53.2176,285.2456,80.301,279.8147,-2.3973e-05,-6.7e-06,0.0,0 STARLINK-3308,1 50846U 22001AV  24054.33909664 -.00000670  00000-0 -23973-4 0  9996,2 50846  53.2176 285.2456 0001456  80.3010 279.8147 15.08844420117743,6917.867,95.437,540.739,538.725,0.0
50846.0,STARLINK-3308,PAYLOAD,2024-02-23 22:26:45,15.08844398,0.0001255,53.2158,282.5722,94.618,265.4955,5.8357e-05,6.41e-06,0.0,0 STARLINK-3308,1 50846U 22001AV  24054.93525334  .00000641  00000-0  58357-4 0  9990,2 50846  53.2158 282.5722 0001255  94.6180 265.4955 15.08844398117834,6917.867,95.437,540.6,538.864,0.0
50846.0,STARLINK-3308,PAYLOAD,2024-02-24 07:59:05,15.08838141,0.0001409,53.2163,280.7879,92.3685,267.7469,-1.0758e-05,-4.59e-06,0.0,0 STARLINK-3308,1 50846U 22001AV  24055.33269711 -.00000459  00000-0 -10758-4 0  9991,2 50846  53.2163 280.7879 0001409  92.3685 267.7469 15.08838141119172,6917.886,95.438,540.726,538.776,0.0
50846.0,STARLINK-3308,PAYLOAD,2024-02-25 14:11:24,15.08841025,0.0001172,53.2157,275.136,87.221,272.8916,0.00013296,1.829e-05,0.0,0 STARLINK-3308,1 50846U 22001AV  24056.59125976  .00001829  00000-0  13296-3 0  9993,2 50846  53.2157 275.1360 0001172  87.2210 272.8916 15.08841025118080,6917.877,95.437,540.553,538.931,0.0
50846.0,STARLINK-3308,PAYLOAD,2024-02-25 20:32:57,15.08847099,0.0001268,53.2144,273.9465,85.2752,274.8385,0.0002161,3.154e-05,0.0,0 STARLINK-3308,1 50846U 22001AV  24056.85621574  .00003154  00000-0  21610-3 0  9999,2 50846  53.2144 273.9465 0001268  85.2752 274.8385 15.08847099119409,6917.859,95.437,540.601,538.847,0.0
50846.0,STARLINK-3308,PAYLOAD,2024-02-25 22:08:20,15.08850057,0.0001379,53.2158,273.65,83.7231,276.3918,0.00017777,2.543e-05,0.0,0 STARLINK-3308,1 50846U 22001AV  24056.92245475  .00002543  00000-0  17777-3 0  9999,2 50846  53.2158 273.6500 0001379  83.7231 276.3918 15.08850057118135,6917.85,95.437,540.669,538.761,0.0
50846.0,STARLINK-3308,PAYLOAD,2024-02-26 14:02:12,15.08839951,0.0001463,53.2146,270.6758,82.8331,277.2827,0.00015636,2.201e-05,0.0,0 STARLINK-3308,1 50846U 22001AV  24057.58486165  .00002201  00000-0  15636-3 0  9998,2 50846  53.2146 270.6758 0001463  82.8331 277.2827 15.08839951118239,6917.881,95.438,540.758,538.733,0.0
50846.0,STARLINK-3308,PAYLOAD,2024-02-26 18:48:21,15.08840124,0.0001457,53.2149,269.7832,84.6189,275.4969,0.00015401,2.164e-05,0.0,0 STARLINK-3308,1 50846U 22001AV  24057.78358190  .00002164  00000-0  15401-3 0  9994,2 50846  53.2149 269.7832 0001457  84.6189 275.4969 15.08840124119544,6917.88,95.438,540.753,538.737,0.0
50846.0,STARLINK-3308,PAYLOAD,2024-02-26 20:23:44,15.08839316,0.0001392,53.2155,269.4872,83.6515,276.4635,0.00012399,1.686e-05,0.0,0 STARLINK-3308,1 50846U 22001AV  24057.84982228  .00001686  00000-0  12399-3 0  9997,2 50846  53.2155 269.4872 0001392  83.6515 276.4635 15.08839316118273,6917.882,95.438,540.71,538.785,0.0
50846.0,STARLINK-3308,PAYLOAD,2024-02-27 07:31:26,15.08839791,0.0001455,53.215,267.4043,83.1922,276.9236,0.00011697,1.574e-05,0.0,0 STARLINK-3308,1 50846U 22001AV  24058.31350303  .00001574  00000-0  11697-3 0  9999,2 50846  53.2150 267.4043 0001455  83.1922 276.9236 15.08839791118340,6917.881,95.438,540.753,538.739,0.0
50846.0,STARLINK-3308,PAYLOAD,2024-02-27 20:14:31,15.08841671,0.0001342,53.2146,265.0247,90.3401,269.7745,0.00010536,1.389e-05,0.0,0 STARLINK-3308,1 50846U 22001AV  24058.84342206  .00001389  00000-0  10536-3 0  9995,2 50846  53.2146 265.0247 0001342  90.3401 269.7745 15.08841671119708,6917.875,95.437,540.669,538.812,0.0
50846.0,STARLINK-3308,PAYLOAD,2024-02-27 23:25:17,15.08845542,0.0001378,53.2153,264.4289,90.7969,269.3181,7.4905e-05,9.05e-06,0.0,0 STARLINK-3308,1 50846U 22001AV  24058.97589996  .00000905  00000-0  74905-4 0  9992,2 50846  53.2153 264.4289 0001378  90.7969 269.3181 15.08845542118448,6917.863,95.437,540.682,538.775,0.0
50846.0,STARLINK-3308,PAYLOAD,2024-02-28 20:05:18,15.08842985,0.0001397,53.2155,260.563,91.7336,268.3817,0.00013541,1.868e-05,0.0,0 STARLINK-3308,1 50846U 22001AV  24059.83702157  .00001868  00000-0  13541-3 0  9991,2 50846  53.2155 260.5630 0001397  91.7336 268.3817 15.08842985118574,6917.871,95.437,540.703,538.77,0.0
50846.0,STARLINK-3308,PAYLOAD,2024-02-29 13:34:33,15.08840983,0.0001422,53.2161,257.2922,91.6107,268.5048,9.5465e-05,1.232e-05,0.0,0 STARLINK-3308,1 50846U 22001AV  24060.56566229  .00001232  00000-0  95465-4 0  9992,2 50846  53.2161 257.2922 0001422  91.6107 268.5048 15.08840983119960,6917.877,95.437,540.726,538.759,0.0
50846.0,STARLINK-3308,PAYLOAD,2024-02-29 19:56:05,15.08845003,0.0001406,53.2167,256.1033,91.7945,268.3208,0.00012899,1.766e-05,0.0,0 STARLINK-3308,1 50846U 22001AV  24060.83061937  .00001766  00000-0  12899-3 0  9999,2 50846  53.2167 256.1033 0001406  91.7945 268.3208 15.08845003118727,6917.865,95.437,540.703,538.757,0.0
50846.0,STARLINK-3308,PAYLOAD,2024-03-01 11:49:57,15.0883953,0.0001411,53.2175,253.1325,94.742,265.3733,0.00010119,1.323e-05,0.0,0 STARLINK-3308,1 50846U 22001AV  24061.49302385  .00001323  00000-0  10119-3 0  9999,2 50846  53.2175 253.1325 0001411  94.7420 265.3733 15.08839530118823,6917.882,95.438,540.723,538.771,0.0
50846.0,STARLINK-3308,PAYLOAD,2024-03-01 19:46:53,15.0883892,0.0001405,53.2176,251.6455,94.0941,266.0212,4.1946e-05,3.8e-06,0.0,0 STARLINK-3308,1 50846U 22001AV  24061.82422526  .00000380  00000-0  41946-4 0  9991,2 50846  53.2176 251.6455 0001405  94.0941 266.0212 15.08838920120156,6917.884,95.438,540.721,538.777,0.0
50846.0,STARLINK-3308,PAYLOAD,2024-03-02 19:37:41,15.08829269,0.0001442,53.2171,247.186,95.7728,264.3428,-2.9444e-05,-7.56e-06,0.0,0 STARLINK-3308,1 50846U 22001AV  24062.81783970 -.00000756  00000-0 -29444-4 0  9992,2 50846  53.2171 247.1860 0001442  95.7728 264.3428 15.08829269120306,6917.913,95.438,540.776,538.781,0.0
50846.0,STARLINK-3308,PAYLOAD,2024-03-03 05:09:59,15.08836071,0.0001463,53.2177,245.4007,91.7217,268.3943,4.7608e-05,4.7e-06,0.0,0 STARLINK-3308,1 50846U 22001AV  24063.21527596  .00000470  00000-0  47608-4 0  9990,2 50846  53.2177 245.4007 0001463  91.7217 268.3943 15.08836071120369,6917.892,95.438,540.769,538.745,0.0
50846.0,STARLINK-3308,PAYLOAD,2024-03-03 19:28:27,15.08844318,0.0001453,53.2168,242.7237,89.5761,270.5398,0.00016945,2.41e-05,0.0,0 STARLINK-3308,1 50846U 22001AV  24063.81143073  .00002410  00000-0  16945-3 0  9995,2 50846  53.2168 242.7237 0001453  89.5761 270.5398 15.08844318119171,6917.867,95.437,540.737,538.727,0.0
50846.0,STARLINK-3308,PAYLOAD,2024-03-04 05:00:45,15.08855688,0.0001466,53.2168,240.9391,88.8063,271.3097,0.00021051,3.065e-05,0.0,0 STARLINK-3308,1 50846U 22001AV  24064.20886254  .00003065  00000-0  21051-3 0  9995,2 50846  53.2168 240.9391 0001466  88.8063 271.3097 15.08855688120510,6917.832,95.437,540.712,538.683,0.0
50846.0,STARLINK-3308,PAYLOAD,2024-03-04 11:22:18,15.08856093,0.0001512,53.216,239.7485,87.2946,272.8219,0.00040624,6.186e-05,0.0,0 STARLINK-3308,1 50846U 22001AV  24064.47382703  .00006186  00000-0  40624-3 0  9998,2 50846  53.2160 239.7485 0001512  87.2946 272.8219 15.08856093120554,6917.831,95.437,540.742,538.65,0.0
50846.0,STARLINK-3308,PAYLOAD,2024-03-04 19:19:13,15.08871019,0.0001469,53.2154,238.2626,85.7402,274.3758,0.00062498,9.681e-05,0.0,0 STARLINK-3308,1 50846U 22001AV  24064.80501986  .00009681  00000-0  62498-3 0  9997,2 50846  53.2154 238.2626 0001469  85.7402 274.3758 15.08871019119322,6917.786,95.436,540.667,538.634,0.0
50846.0,STARLINK-3308,PAYLOAD,2024-03-05 20:45:24,15.08840319,0.0001427,53.2159,233.506,93.4549,266.6606,0.00021952,3.207e-05,0.0,0 STARLINK-3308,1 50846U 22001AV  24065.86486391  .00003207  00000-0  21952-3 0  9994,2 50846  53.2159 233.5060 0001427  93.4549 266.6606 15.08840319120764,6917.879,95.438,540.732,538.757,0.0
50846.0,STARLINK-3308,PAYLOAD,2024-03-06 04:42:20,15.0883103,0.0001531,53.2154,232.0149,104.1873,255.9289,-5.4838e-05,-1.16e-05,0.0,0 STARLINK-3308,1 50846U 22001AV  24066.19606707 -.00001160  00000-0 -54838-4 0  9994,2 50846  53.2154 232.0149 0001531 104.1873 255.9289 15.08831030120811,6917.908,95.438,540.832,538.714,0.0
50846.0,STARLINK-3308,PAYLOAD,2024-03-06 14:14:39,15.08833019,0.0001602,53.216,230.2295,114.1318,245.9842,0.00034906,5.271e-05,0.0,0 STARLINK-3308,1 50846U 22001AV  24066.59351047  .00005271  00000-0  34906-3 0  9990,2 50846  53.2160 230.2295 0001602 114.1318 245.9842 15.08833019119590,6917.902,95.438,540.875,538.658,0.0
50846.0,STARLINK-3308,PAYLOAD,2024-03-07 14:05:26,15.08842175,0.0001513,53.2161,225.77,99.1484,260.9679,0.00041096,6.259e-05,0.0,0 STARLINK-3308,1 50846U 22001AV  24067.58711422  .00006259  00000-0  41096-3 0  9992,2 50846  53.2161 225.7700 0001513  99.1484 260.9679 15.08842175119743,6917.874,95.437,540.785,538.692,0.0
50846.0,STARLINK-3308,PAYLOAD,2024-03-08 10:45:27,15.08848977,0.0001364,53.2165,221.9073,90.7718,269.3431,0.00033041,4.976e-05,0.0,0 STARLINK-3308,1 50846U 22001AV  24068.44823153  .00004976  00000-0  33041-3 0  9998,2 50846  53.2165 221.9073 0001364  90.7718 269.3431 15.08848977119878,6917.853,95.437,540.662,538.774,0.0
50846.0,STARLINK-3308,PAYLOAD,2024-03-08 17:06:59,15.0885622,0.000133,53.2165,220.7183,91.0913,269.0232,0.00041602,6.342e-05,0.0,0 STARLINK-3308,1 50846U 22001AV  24068.71318751  .00006342  00000-0  41602-3 0  9992,2 50846  53.2165 220.7183 0001330  91.0913 269.0232 15.08856220121195,6917.831,95.437,540.616,538.776,0.0
